NORAD_CAT_ID,OBJECT_NAME,OBJECT_TYPE,EPOCH,MEAN_MOTION,ECCENTRICITY,INCLINATION,RA_OF_ASC_NODE,ARG_OF_PERICENTER,MEAN_ANOMALY,BSTAR,MEAN_MOTION_DOT,MEAN_MOTION_DDOT,TLE_LINE0,TLE_LINE1,TLE_LINE2,SEMIMAJOR_AXIS,PERIOD,APOGEE,PERIGEE,DECAYED
50814.0,STARLINK-3324,PAYLOAD,2024-06-23 04:40:49,15.08840821,0.000142,53.2176,92.5843,100.9536,259.1616,9.2905e-05,1.191e-05,0.0,0 STARLINK-3324,1 50814U 22001M   24175.19501244  .00001191  00000-0  92905-4 0  9999,2 50814  53.2176  92.5843 0001420 100.9536 259.1616 15.08840821137408,6917.878,95.438,540.725,538.761,0.0
50814.0,STARLINK-3324,PAYLOAD,2024-06-23 22:10:03,15.08839252,0.000134,53.2174,89.3134,103.4808,256.6333,9.1113e-05,1.162e-05,0.0,0 STARLINK-3324,1 50814U 22001M   24175.92365342  .00001162  00000-0  91113-4 0  9995,2 50814  53.2174  89.3134 0001340 103.4808 256.6333 15.08839252136249,6917.883,95.438,540.675,538.821,0.0
50814.0,STARLINK-3324,PAYLOAD,2024-06-24 04:31:35,15.08841918,0.0001496,53.218,88.1237,114.1429,245.972,0.00011005,1.464e-05,0.0,0 STARLINK-3324,1 50814U 22001M   24176.18861084  .00001464  00000-0  11005-3 0  9994,2 50814  53.2180  88.1237 0001496 114.1429 245.9720 15.08841918136284,6917.875,95.437,540.774,538.705,0.0
50814.0,STARLINK-3324,PAYLOAD,2024-06-24 22:00:50,15.08836645,0.0001976,53.2189,84.8528,127.6572,232.46,4.2379e-05,3.86e-06,0.0,0 STARLINK-3324,1 50814U 22001M   24176.91725602  .00000386  00000-0  42379-4 0  9991,2 50814  53.2189  84.8528 0001976 127.6572 232.4600 15.08836645136391,6917.891,95.438,541.123,538.389,0.0
50814.0,STARLINK-3324,PAYLOAD,2024-06-25 01:11:37,15.0883703,0.0001453,53.2175,84.2596,108.5475,251.5675,2.6117e-05,1.28e-06,0.0,0 STARLINK-3324,1 50814U 22001M   24177.04973743  .00000128  00000-0  26117-4 0  9993,2 50814  53.2175  84.2596 0001453 108.5475 251.5675 15.08837030137681,6917.889,95.438,540.76,538.749,0.0
50814.0,STARLINK-3324,PAYLOAD,2024-06-25 21:51:37,15.0884024,0.0001371,53.2175,80.3952,106.749,253.3653,8.8307e-05,1.118e-05,0.0,0 STARLINK-3324,1 50814U 22001M   24177.91085477  .00001118  00000-0  88307-4 0  9996,2 50814  53.2175  80.3952 0001371 106.7490 253.3653 15.08840240136547,6917.88,95.438,540.693,538.796,0.0
50814.0,STARLINK-3324,PAYLOAD,2024-06-26 01:02:23,15.08843517,0.0001294,53.2169,79.8005,95.9692,264.1448,0.00012184,1.652e-05,0.0,0 STARLINK-3324,1 50814U 22001M   24178.04333268  .00001652  00000-0  12184-3 0  9997,2 50814  53.2169  79.8005 0001294  95.9692 264.1448 15.08843517137834,6917.87,95.437,540.63,538.839,0.0
50814.0,STARLINK-3324,PAYLOAD,2024-06-27 00:53:10,15.08842737,0.0001233,53.2177,75.3314,106.0691,254.0437,0.00010618,1.403e-05,0.0,0 STARLINK-3324,1 50814U 22001M   24179.03693276  .00001403  00000-0  10618-3 0  9999,2 50814  53.2177  75.3314 0001233 106.0691 254.0437 15.08842737137988,6917.872,95.437,540.59,538.884,0.0
50814.0,STARLINK-3324,PAYLOAD,2024-06-27 10:25:28,15.08859106,0.0001232,53.217,73.55,106.8885,253.2242,0.00025922,3.842e-05,0.0,0 STARLINK-3324,1 50814U 22001M   24179.43435924  .00003842  00000-0  25922-3 0  9990,2 50814  53.2170  73.5500 0001232 106.8885 253.2242 15.08859106138041,6917.822,95.436,540.539,538.835,0.0
50814.0,STARLINK-3324,PAYLOAD,2024-06-27 21:33:12,15.08832449,0.0001117,53.2161,71.4706,90.1102,270.0018,-9.3147e-05,-1.77e-05,0.0,0 STARLINK-3324,1 50814U 22001M   24179.89805744 -.00001770  00000-0 -93147-4 0  9996,2 50814  53.2161  71.4706 0001117  90.1102 270.0018 15.08832449138112,6917.903,95.438,540.541,538.996,0.0
50814.0,STARLINK-3324,PAYLOAD,2024-06-28 10:16:16,15.08841846,0.0001104,53.2151,69.0906,126.5404,233.5689,-3.728e-07,-2.94e-06,0.0,0 STARLINK-3324,1 50814U 22001M   24180.42796924 -.00000294  00000-0 -37280-6 0  9994,2 50814  53.2151  69.0906 0001104 126.5404 233.5689 15.08841846138198,6917.875,95.437,540.503,538.976,0.0
50814.0,STARLINK-3324,PAYLOAD,2024-06-28 22:59:21,15.08847957,0.0001279,53.216,66.7132,103.1816,256.9319,9.8863e-07,-2.72e-06,0.0,0 STARLINK-3324,1 50814U 22001M   24180.95789064 -.00000272  00000-0  98863-6 0  9998,2 50814  53.2160  66.7132 0001279 103.1816 256.9319 15.08847957137001,6917.856,95.437,540.606,538.836,0.0
50814.0,STARLINK-3324,PAYLOAD,2024-06-29 19:39:24,15.08812826,0.0001048,53.2162,62.8481,95.9808,264.1303,-8.836e-05,-1.693e-05,0.0,0 STARLINK-3324,1 50814U 22001M   24181.81903265 -.00001693  00000-0 -88360-4 0  9993,2 50814  53.2162  62.8481 0001048  95.9808 264.1303 15.08812826138406,6917.963,95.439,540.553,539.103,0.0
50814.0,STARLINK-3324,PAYLOAD,2024-06-29 22:50:10,15.08819181,9.74e-05,53.2153,62.252,102.393,257.7171,-6.526e-05,-1.326e-05,0.0,0 STARLINK-3324,1 50814U 22001M   24181.95151237 -.00001326  00000-0 -65260-4 0  9999,2 50814  53.2153  62.2520 0000974 102.3930 257.7171 15.08819181137153,6917.944,95.439,540.483,539.135,0.0
50814.0,STARLINK-3324,PAYLOAD,2024-06-30 02:00:57,15.08816676,0.0001231,53.2161,61.6582,99.3659,260.7473,-0.00015234,-2.71e-05,0.0,0 STARLINK-3324,1 50814U 22001M   24182.08399578 -.00002710  00000-0 -15234-3 0  9999,2 50814  53.2161  61.6582 0001231  99.3659 260.7473 15.08816676137170,6917.952,95.439,540.668,538.965,0.0
50814.0,STARLINK-3324,PAYLOAD,2024-06-30 21:05:34,15.08846542,0.0001447,53.2167,58.091,104.9004,255.2148,0.00037548,5.694e-05,0.0,0 STARLINK-3324,1 50814U 22001M   24182.87886685  .00005694  00000-0  37548-3 0  9990,2 50814  53.2167  58.0910 0001447 104.9004 255.2148 15.08846542138564,6917.86,95.437,540.726,538.724,0.0
50814.0,STARLINK-3324,PAYLOAD,2024-06-30 22:40:57,15.08847578,0.0001129,53.2164,57.7966,82.8313,277.2808,0.00045836,7.016e-05,0.0,0 STARLINK-3324,1 50814U 22001M   24182.94510730  .00007016  00000-0  45836-3 0  9992,2 50814  53.2164  57.7966 0001129  82.8313 277.2808 15.08847578137300,6917.857,95.437,540.503,538.941,0.0
50814.0,STARLINK-3324,PAYLOAD,2024-07-01 08:13:15,15.08875137,0.000121,53.2172,56.0108,84.6231,275.4899,0.001095,0.00017199,0.0,0 STARLINK-3324,1 50814U 22001M   24183.34253922  .00017199  00000-0  10950-2 0  9995,2 50814  53.2172  56.0108 0001210  84.6231 275.4899 15.08875137138638,6917.773,95.435,540.475,538.801,0.0
50814.0,STARLINK-3324,PAYLOAD,2024-07-01 20:56:20,15.08850841,0.0001104,53.2166,53.6316,100.6946,259.417,4.8219e-05,4.8e-06,0.0,0 STARLINK-3324,1 50814U 22001M   24183.87246244  .00000480  00000-0  48219-4 0  9998,2 50814  53.2166  53.6316 0001104 100.6946 259.4170 15.08850841138717,6917.847,95.437,540.476,538.949,0.0
50814.0,STARLINK-3324,PAYLOAD,2024-07-01 22:31:44,15.08837751,9.75e-05,53.2164,53.3345,99.2969,260.8134,0.0014876,0.00023465,0.0,0 STARLINK-3324,1 50814U 22001M   24183.93870470  .00023465  00000-0  14876-2 0  9997,2 50814  53.2164  53.3345 0000975  99.2969 260.8134 15.08837751137458,6917.887,95.438,540.427,539.078,0.0
50814.0,STARLINK-3324,PAYLOAD,2024-07-02 14:25:35,15.08860657,0.0002618,53.2162,50.3609,81.6984,278.4305,0.0020105,0.00031873,0.0,0 STARLINK-3324,1 50814U 22001M   24184.60110811  .00031873  00000-0  20105-2 0  9992,2 50814  53.2162  50.3609 0002618  81.6984 278.4305 15.08860657137551,6917.817,95.436,541.493,537.871,0.0
50814.0,STARLINK-3324,PAYLOAD,2024-07-02 20:47:08,15.08844774,8.78e-05,53.2164,49.1718,97.3529,262.7563,0.0012992,0.00020452,0.0,0 STARLINK-3324,1 50814U 22001M   24184.86606628  .00020452  00000-0  12992-2 0  9992,2 50814  53.2164  49.1718 0000878  97.3529 262.7563 15.08844774138864,6917.866,95.437,540.338,539.123,0.0
50814.0,STARLINK-3324,PAYLOAD,2024-07-02 22:22:31,15.0884685,8.72e-05,53.2162,48.8743,94.5073,265.6018,0.0015163,0.00023931,0.0,0 STARLINK-3324,1 50814U 22001M   24184.93230614  .00023931  00000-0  15163-2 0  9996,2 50814  53.2162  48.8743 0000872  94.5073 265.6018 15.08846850137608,6917.859,95.437,540.328,539.121,0.0
50814.0,STARLINK-3324,PAYLOAD,2024-07-03 20:37:55,15.08846278,0.0001024,53.2156,44.7102,93.1875,266.9234,0.0010819,0.00016975,0.0,0 STARLINK-3324,1 50814U 22001M   24185.85966513  .00016975  00000-0  10819-2 0  9995,2 50814  53.2156  44.7102 0001024  93.1875 266.9234 15.08846278139015,6917.861,95.437,540.435,539.018,0.0
50814.0,STARLINK-3324,PAYLOAD,2024-07-03 22:13:18,15.08848817,0.0001065,53.2157,44.413,88.5932,271.5182,0.0012026,0.00018908,0.0,0 STARLINK-3324,1 50814U 22001M   24185.92590505  .00018908  00000-0  12026-2 0  9997,2 50814  53.2157  44.4130 0001065  88.5932 271.5182 15.08848817137755,6917.853,95.437,540.455,538.982,0.0
50814.0,STARLINK-3324,PAYLOAD,2024-07-04 14:07:09,15.08854948,0.0002487,53.2127,41.4402,79.0724,281.0548,0.0010098,0.00015826,0.0,0 STARLINK-3324,1 50814U 22001M   24186.58830607  .00015826  00000-0  10098-2 0  9993,2 50814  53.2127  41.4402 0002487  79.0724 281.0548 15.08854948137859,6917.835,95.437,541.42,537.979,0.0
50814.0,STARLINK-3324,PAYLOAD,2024-07-04 20:28:42,15.08846267,0.0001017,53.2157,40.2508,79.6904,280.4203,0.0013079,0.00020592,0.0,0 STARLINK-3324,1 50814U 22001M   24186.85326485  .00020592  00000-0  13079-2 0  9995,2 50814  53.2157  40.2508 0001017  79.6904 280.4203 15.08846267139162,6917.861,95.437,540.43,539.023,0.0
50814.0,STARLINK-3324,PAYLOAD,2024-07-04 22:04:05,15.08844354,9.85e-05,53.2158,39.9537,80.3698,279.7405,0.0013841,0.00021811,0.0,0 STARLINK-3324,1 50814U 22001M   24186.91950476  .00021811  00000-0  13841-2 0  9997,2 50814  53.2158  39.9537 0000985  80.3698 279.7405 15.08844354137902,6917.867,95.437,540.413,539.051,0.0
50814.0,STARLINK-3324,PAYLOAD,2024-07-04 23:39:28,15.08848911,0.0001022,53.2158,39.6562,75.541,284.5696,0.0016497,0.00026071,0.0,0 STARLINK-3324,1 50814U 22001M   24186.98574442  .00026071  00000-0  16497-2 0  9992,2 50814  53.2158  39.6562 0001022  75.5410 284.5696 15.08848911137918,6917.853,95.437,540.425,539.011,0.0
50814.0,STARLINK-3324,PAYLOAD,2024-07-05 20:19:29,15.08854343,0.0001003,53.2173,35.7913,79.9143,280.1962,0.0013827,0.00021795,0.0,0 STARLINK-3324,1 50814U 22001M   24187.84686599  .00021795  00000-0  13827-2 0  9997,2 50814  53.2173  35.7913 0001003  79.9143 280.1962 15.08854343139312,6917.837,95.437,540.395,539.008,0.0
